ONEWEB-0597             
1 54663U 22166X   26201.36699140  .00000017  00000+0  98613-5 0  9999
2 54663  87.9229 237.3834 0001930  94.6492 265.4862 13.21824216175927
ONEWEB-0600             
1 54664U 22166Y   26201.80267661  .00000040  00000+0  64229-4 0  9999
2 54664  87.9231 237.2879 0002012 101.1937 258.9423 13.21826173175956
ONEWEB-0601             
1 54665U 22166Z   26201.79425830  .00000022  00000+0  21074-4 0  9993
2 54665  87.9229 237.3054 0001752  95.7913 264.3421 13.21825519176146
ONEWEB-0602             
1 54666U 22166AA  26201.83546771  .00000024  00000+0  27762-4 0  9999
2 54666  87.9226 237.3031 0001972 102.0963 258.0392 13.21824215175991
ONEWEB-0603             
1 54667U 22166AB  26201.16008227  .00000056  00000+0  10368-3 0  9993
2 54667  87.9237 237.3978 0001979  96.3929 263.7430 13.21824525175831
ONEWEB-0604             
1 54668U 22166AC  26201.37539672  .00000063  00000+0  12149-3 0  9997
2 54668  87.9241 237.3710 0002101  96.5971 263.5402 13.21824975175823
ONEWEB-0605             
1 54669U 22166AD  26201.14157961  .00000059  00000+0  11109-3 0  9990
2 54669  87.9229 237.4280 0001746  78.9829 281.1501 13.21824502175869
ONEWEB-0606             
1 54670U 22166AE  26201.16344690 -.00000056  00000+0 -16814-3 0  9998
2 54670  87.9229 237.4359 0002180  98.0699 262.0683 13.21825881175926
ONEWEB-0607             
1 54671U 22166AF  26201.35690701  .00000049  00000+0  88243-4 0  9993
2 54671  87.9238 237.3708 0001936  97.4023 262.7331 13.21826170175925
ONEWEB-0608             
1 54672U 22166AG  26201.81779951  .00000002  00000+0 -26178-4 0  9999
2 54672  87.9242 237.2770 0001605  87.4654 272.6664 13.21823556175992
ONEWEB-0610             
1 54673U 22166AH  26201.34344938  .00000057  00000+0  10754-3 0  9992
2 54673  87.9230 237.3818 0001450  96.7292 263.4007 13.21826393175837
ONEWEB-0611             
1 54674U 22166AJ  26201.79087441 -.00000090  00000+0 -24981-3 0  9991
2 54674  87.9229 237.2885 0002140  95.3209 264.8170 13.21825138175886
ONEWEB-0612             
1 54675U 22166AK  26201.35016759  .00000058  00000+0  10974-3 0  9997
2 54675  87.9243 237.3757 0001895  93.7688 266.3662 13.21826994175818
ONEWEB-0615             
1 54676U 22166AL  26201.85985534 -.00000019  00000+0 -78707-4 0  9997
2 54676  87.9233 237.2858 0002259  99.4101 260.7289 13.21824452175895
ONEWEB-0655             
1 54677U 22166AM  26201.38212978 -.00000030  00000+0 -10459-3 0  9993
2 54677  87.9229 237.3817 0001933 101.0456 259.0895 13.21824005175829
ONEWEB-0659             
1 54678U 22166AN  26201.92882868 -.00000068  00000+0 -19676-3 0  9996
2 54678  87.9229 237.2723 0002022  93.3630 266.7735 13.21825136175983
ONEWEB-0685             
1 54679U 22166AP  26201.39833532  .00006550  00000+0  15778-1 0  9999
2 54679  87.9156 237.3689 0002264  89.6420 270.4974 13.21989312175803
ONEWEB-0712             
1 54680U 22166AQ  26201.42266654  .00000144  00000+0  34418-3 0  9997
2 54680  87.9077 222.1729 0001882 106.6322 253.5016 13.16595990176438
ONEWEB-0714             
1 54681U 22166AR  26201.32831103 -.00000030  00000+0 -10465-3 0  9996
2 54681  87.9229 237.3814 0002108 103.8053 256.3315 13.21825701175910
ONEWEB-0532             
1 55140U 23004A   26201.90003949  .00000043  00000+0  77427-4 0  9996
2 55140  87.9154 359.1572 0001845  83.4137 276.7205 13.17648766172027
ONEWEB-0533             
1 55141U 23004B   26201.92552979  .00000427  00000+0  11524-2 0  9991
2 55141  87.8972 343.9629 0001656  98.2208 261.9108 13.12442283172481
ONEWEB-0541             
1 55142U 23004C   26201.90547443 -.00000263  00000+0 -77801-3 0  9991
2 55142  87.8896  14.3462 0001982  88.5863 271.5492 13.11418229170362
ONEWEB-0543             
1 55143U 23004D   26201.85303284  .00000061  00000+0  12122-3 0  9998
2 55143  87.9191 328.7741 0001945 105.7937 254.3409 13.18686927174132
ONEWEB-0544             
1 55144U 23004E   26201.84628868  .00000004  00000+0 -21670-4 0  9993
2 55144  87.9193 328.7748 0002112 101.4382 258.6988 13.18684630174134
ONEWEB-0560             
1 55145U 23004F   26201.91542896  .00000055  00000+0  10559-3 0  9996
2 55145  87.9192 328.7507 0002131 104.1459 255.9910 13.18685792174150
ONEWEB-0565             
1 55146U 23004G   26201.90868354  .00000017  00000+0  10819-4 0  9994
2 55146  87.9183 328.7766 0002260  93.0740 267.0651 13.18685214174144
ONEWEB-0567             
1 55147U 23004H   26201.90193090 -.00000257  00000+0 -68517-3 0  9998
2 55147  87.9194 328.7651 0002247  96.7591 263.3796 13.18685606174143
ONEWEB-0569             
1 55148U 23004J   26201.83098960  .00000353  00000+0  93186-3 0  9996
2 55148  87.8990 313.5280 0002799 108.0571 252.0864 13.13470361174599
ONEWEB-0570             
1 55149U 23004K   26201.89350377  .00000019  00000+0  16277-4 0  9992
2 55149  87.9192 328.7643 0001925  86.2560 273.8793 13.18684797174138
ONEWEB-0571             
1 55150U 23004L   26201.88677207 -.00000055  00000+0 -17186-3 0  9998
2 55150  87.9193 328.7654 0003156  95.5005 264.6487 13.18686093174148
